CCSDS_OMM_VERS = 2.0
CREATION_DATE  = 
ORIGINATOR     = 

OBJECT_NAME    = STARLINK-36209
OBJECT_ID      = 2025-293V
CENTER_NAME    = EARTH
REF_FRAME      = TEME
TIME_SYSTEM    = UTC
MEAN_ELEMENT_THEORY = SGP/SGP4

EPOCH          = 2026-01-02T04:00:01.998720
MEAN_MOTION    = 15.52567014
ECCENTRICITY   = .0003347
INCLINATION    = 70.0002
RA_OF_ASC_NODE = 265.5007
ARG_OF_PERICENTER = 277.1475
MEAN_ANOMALY   = 331.0993

EPHEMERIS_TYPE = 0
CLASSIFICATION_TYPE = U
NORAD_CAT_ID   = 67022
ELEMENT_SET_NO = 999
REV_AT_EPOCH   = 349
BSTAR          = -.17985E-2
MEAN_MOTION_DOT = -.109496E-2
MEAN_MOTION_DDOT = 0

CCSDS_OMM_VERS = 2.0
CREATION_DATE  = 
ORIGINATOR     = 

OBJECT_NAME    = STARLINK-36191
OBJECT_ID      = 2025-293W
CENTER_NAME    = EARTH
REF_FRAME      = TEME
TIME_SYSTEM    = UTC
MEAN_ELEMENT_THEORY = SGP/SGP4

EPOCH          = 2026-01-02T04:00:01.998720
MEAN_MOTION    = 15.52566747
ECCENTRICITY   = .0003166
INCLINATION    = 69.9999
RA_OF_ASC_NODE = 265.4984
ARG_OF_PERICENTER = 272.5771
MEAN_ANOMALY   = 337.5847

EPHEMERIS_TYPE = 0
CLASSIFICATION_TYPE = U
NORAD_CAT_ID   = 67023
ELEMENT_SET_NO = 999
REV_AT_EPOCH   = 338
BSTAR          = -.1689E-2
MEAN_MOTION_DOT = -.102916E-2
MEAN_MOTION_DDOT = 0

CCSDS_OMM_VERS = 2.0
CREATION_DATE  = 
ORIGINATOR     = 

OBJECT_NAME    = STARLINK-36192
OBJECT_ID      = 2025-293X
CENTER_NAME    = EARTH
REF_FRAME      = TEME
TIME_SYSTEM    = UTC
MEAN_ELEMENT_THEORY = SGP/SGP4

EPOCH          = 2026-01-01T22:00:01.999584
MEAN_MOTION    = 15.52505231
ECCENTRICITY   = .00033186
INCLINATION    = 70.0003
RA_OF_ASC_NODE = 266.1807
ARG_OF_PERICENTER = 265.3445
MEAN_ANOMALY   = 29.9296

EPHEMERIS_TYPE = 0
CLASSIFICATION_TYPE = U
NORAD_CAT_ID   = 67024
ELEMENT_SET_NO = 999
REV_AT_EPOCH   = 345
BSTAR          = -.81177066E-3
MEAN_MOTION_DOT = -.49773E-3
MEAN_MOTION_DDOT = 0

CCSDS_OMM_VERS = 2.0
CREATION_DATE  = 
ORIGINATOR     = 

OBJECT_NAME    = STARLINK-36178
OBJECT_ID      = 2025-293Y
CENTER_NAME    = EARTH
REF_FRAME      = TEME
TIME_SYSTEM    = UTC
MEAN_ELEMENT_THEORY = SGP/SGP4

EPOCH          = 2026-01-02T04:00:01.998720
MEAN_MOTION    = 15.52573871
ECCENTRICITY   = .0002949
INCLINATION    = 70.0001
RA_OF_ASC_NODE = 265.4940
ARG_OF_PERICENTER = 273.4016
MEAN_ANOMALY   = 340.5943

EPHEMERIS_TYPE = 0
CLASSIFICATION_TYPE = U
NORAD_CAT_ID   = 67025
ELEMENT_SET_NO = 999
REV_AT_EPOCH   = 349
BSTAR          = -.20276E-2
MEAN_MOTION_DOT = -.123229E-2
MEAN_MOTION_DDOT = 0

CCSDS_OMM_VERS = 2.0
CREATION_DATE  = 
ORIGINATOR     = 

OBJECT_NAME    = STARLINK-36176
OBJECT_ID      = 2025-293Z
CENTER_NAME    = EARTH
REF_FRAME      = TEME
TIME_SYSTEM    = UTC
MEAN_ELEMENT_THEORY = SGP/SGP4

EPOCH          = 2026-01-02T04:00:01.998720
MEAN_MOTION    = 15.52551538
ECCENTRICITY   = .000353
INCLINATION    = 70.0000
RA_OF_ASC_NODE = 265.4897
ARG_OF_PERICENTER = 276.6222
MEAN_ANOMALY   = 341.2074

EPHEMERIS_TYPE = 0
CLASSIFICATION_TYPE = U
NORAD_CAT_ID   = 67026
ELEMENT_SET_NO = 999
REV_AT_EPOCH   = 349
BSTAR          = -.11849E-2
MEAN_MOTION_DOT = -.72488E-3
MEAN_MOTION_DDOT = 0

CCSDS_OMM_VERS = 2.0
CREATION_DATE  = 
ORIGINATOR     = 

OBJECT_NAME    = STARLINK-36171
OBJECT_ID      = 2025-293AA
CENTER_NAME    = EARTH
REF_FRAME      = TEME
TIME_SYSTEM    = UTC
MEAN_ELEMENT_THEORY = SGP/SGP4

EPOCH          = 2026-01-02T04:00:01.998720
MEAN_MOTION    = 15.52574007
ECCENTRICITY   = .0003222
INCLINATION    = 70.0000
RA_OF_ASC_NODE = 265.4914
ARG_OF_PERICENTER = 270.9652
MEAN_ANOMALY   = 344.9437

EPHEMERIS_TYPE = 0
CLASSIFICATION_TYPE = U
NORAD_CAT_ID   = 67027
ELEMENT_SET_NO = 999
REV_AT_EPOCH   = 349
BSTAR          = -.18648E-2
MEAN_MOTION_DOT = -.113491E-2
MEAN_MOTION_DDOT = 0

CCSDS_OMM_VERS = 2.0
CREATION_DATE  = 
ORIGINATOR     = 

OBJECT_NAME    = STARLINK-36132
OBJECT_ID      = 2025-293AB
CENTER_NAME    = EARTH
REF_FRAME      = TEME
TIME_SYSTEM    = UTC
MEAN_ELEMENT_THEORY = SGP/SGP4

EPOCH          = 2026-01-02T04:00:01.998720
MEAN_MOTION    = 15.52569314
ECCENTRICITY   = .0003209
INCLINATION    = 70.0000
RA_OF_ASC_NODE = 265.4846
ARG_OF_PERICENTER = 271.7705
MEAN_ANOMALY   = 349.8909

EPHEMERIS_TYPE = 0
CLASSIFICATION_TYPE = U
NORAD_CAT_ID   = 67028
ELEMENT_SET_NO = 999
REV_AT_EPOCH   = 349
BSTAR          = -.18725E-2
MEAN_MOTION_DOT = -.113933E-2
MEAN_MOTION_DDOT = 0

CCSDS_OMM_VERS = 2.0
CREATION_DATE  = 
ORIGINATOR     = 

OBJECT_NAME    = STARLINK-36190
OBJECT_ID      = 2025-293AC
CENTER_NAME    = EARTH
REF_FRAME      = TEME
TIME_SYSTEM    = UTC
MEAN_ELEMENT_THEORY = SGP/SGP4

EPOCH          = 2026-01-02T04:00:01.998720
MEAN_MOTION    = 15.52539791
ECCENTRICITY   = .0003087
INCLINATION    = 70.0000
RA_OF_ASC_NODE = 265.4874
ARG_OF_PERICENTER = 267.5920
MEAN_ANOMALY   = 352.1541

EPHEMERIS_TYPE = 0
CLASSIFICATION_TYPE = U
NORAD_CAT_ID   = 67029
ELEMENT_SET_NO = 999
REV_AT_EPOCH   = 349
BSTAR          = -.91637E-3
MEAN_MOTION_DOT = -.56187E-3
MEAN_MOTION_DDOT = 0

CCSDS_OMM_VERS = 2.0
CREATION_DATE  = 
ORIGINATOR     = 

OBJECT_NAME    = STARLINK-36138
OBJECT_ID      = 2025-294A
CENTER_NAME    = EARTH
REF_FRAME      = TEME
TIME_SYSTEM    = UTC
MEAN_ELEMENT_THEORY = SGP/SGP4

EPOCH          = 2026-01-02T03:44:29.353056
MEAN_MOTION    = 15.50613975
ECCENTRICITY   = .0001406
INCLINATION    = 43.0001
RA_OF_ASC_NODE = 59.0311
ARG_OF_PERICENTER = 286.8247
MEAN_ANOMALY   = 73.2459

EPHEMERIS_TYPE = 0
CLASSIFICATION_TYPE = U
NORAD_CAT_ID   = 67030
ELEMENT_SET_NO = 999
REV_AT_EPOCH   = 456
BSTAR          = .26281E-2
MEAN_MOTION_DOT = .157165E-2
MEAN_MOTION_DDOT = 0

CCSDS_OMM_VERS = 2.0
CREATION_DATE  = 
ORIGINATOR     = 

OBJECT_NAME    = STARLINK-36150
OBJECT_ID      = 2025-294B
CENTER_NAME    = EARTH
REF_FRAME      = TEME
TIME_SYSTEM    = UTC
MEAN_ELEMENT_THEORY = SGP/SGP4

EPOCH          = 2026-01-02T04:00:01.998720
MEAN_MOTION    = 15.44410077
ECCENTRICITY   = .0001276
INCLINATION    = 43.0001
RA_OF_ASC_NODE = 59.0004
ARG_OF_PERICENTER = 271.1250
MEAN_ANOMALY   = 136.0085

EPHEMERIS_TYPE = 0
CLASSIFICATION_TYPE = U
NORAD_CAT_ID   = 67031
ELEMENT_SET_NO = 999
REV_AT_EPOCH   = 357
BSTAR          = -.48486E-1
MEAN_MOTION_DOT = -.2040598E-1
MEAN_MOTION_DDOT = 0

CCSDS_OMM_VERS = 2.0
CREATION_DATE  = 
ORIGINATOR     = 

OBJECT_NAME    = STARLINK-36131
OBJECT_ID      = 2025-294C
CENTER_NAME    = EARTH
REF_FRAME      = TEME
TIME_SYSTEM    = UTC
MEAN_ELEMENT_THEORY = SGP/SGP4

EPOCH          = 2026-01-02T04:00:01.998720
MEAN_MOTION    = 15.40699370
ECCENTRICITY   = .0001357
INCLINATION    = 43.0002
RA_OF_ASC_NODE = 59.0774
ARG_OF_PERICENTER = 290.3263
MEAN_ANOMALY   = 84.9558

EPHEMERIS_TYPE = 0
CLASSIFICATION_TYPE = U
NORAD_CAT_ID   = 67032
ELEMENT_SET_NO = 999
REV_AT_EPOCH   = 338
BSTAR          = .14395E-3
MEAN_MOTION_DOT = .5714E-4
MEAN_MOTION_DDOT = 0

CCSDS_OMM_VERS = 2.0
CREATION_DATE  = 
ORIGINATOR     = 

OBJECT_NAME    = STARLINK-36137
OBJECT_ID      = 2025-294D
CENTER_NAME    = EARTH
REF_FRAME      = TEME
TIME_SYSTEM    = UTC
MEAN_ELEMENT_THEORY = SGP/SGP4

EPOCH          = 2026-01-02T04:00:01.998720
MEAN_MOTION    = 15.40743723
ECCENTRICITY   = .00013
INCLINATION    = 43.0003
RA_OF_ASC_NODE = 59.0468
ARG_OF_PERICENTER = 263.4567
MEAN_ANOMALY   = 124.3095

EPHEMERIS_TYPE = 0
CLASSIFICATION_TYPE = U
NORAD_CAT_ID   = 67033
ELEMENT_SET_NO = 999
REV_AT_EPOCH   = 338
BSTAR          = -.31476E-2
MEAN_MOTION_DOT = -.129764E-2
MEAN_MOTION_DDOT = 0

