STARLINK-36209          
1 67022U 25293V   26002.16668980 -.00109496  00000+0 -17985-2 0  9994
2 67022  70.0002 265.5007 0003347 277.1475 331.0993 15.52567014  3493
STARLINK-36191          
1 67023U 25293W   26002.16668980 -.00102916  00000+0 -16890-2 0  9999
2 67023  69.9999 265.4984 0003166 272.5771 337.5847 15.52566747  3385
STARLINK-36192          
1 67024U 25293X   26001.91668981 -.00049773  00000+0 -81177-3 0  9995
2 67024  70.0003 266.1807 0003318 265.3445  29.9296 15.52505231  3453
STARLINK-36178          
1 67025U 25293Y   26002.16668980 -.00123229  00000+0 -20276-2 0  9994
2 67025  70.0001 265.4940 0002949 273.4016 340.5943 15.52573871  3495
STARLINK-36176          
1 67026U 25293Z   26002.16668980 -.00072488  00000+0 -11849-2 0  9991
2 67026  70.0000 265.4897 0003530 276.6222 341.2074 15.52551538  3496
STARLINK-36171          
1 67027U 25293AA  26002.16668980 -.00113491  00000+0 -18648-2 0  9996
2 67027  70.0000 265.4914 0003222 270.9652 344.9437 15.52574007  3498
STARLINK-36132          
1 67028U 25293AB  26002.16668980 -.00113933  00000+0 -18725-2 0  9994
2 67028  70.0000 265.4846 0003209 271.7705 349.8909 15.52569314  3499
STARLINK-36190          
1 67029U 25293AC  26002.16668980 -.00056187  00000+0 -91637-3 0  9996
2 67029  70.0000 265.4874 0003087 267.5920 352.1541 15.52539791  3492
STARLINK-36138          
1 67030U 25294A   26002.15589529  .00157165  00000+0  26281-2 0  9997
2 67030  43.0001  59.0311 0001406 286.8247  73.2459 15.50613975  4560
STARLINK-36150          
1 67031U 25294B   26002.16668980 -.02040598  00000+0 -48486-1 0  9993
2 67031  43.0001  59.0004 0001276 271.1250 136.0085 15.44410077  3570
STARLINK-36131          
1 67032U 25294C   26002.16668980  .00005714  00000+0  14395-3 0  9995
2 67032  43.0002  59.0774 0001357 290.3263  84.9558 15.40699370  3389
STARLINK-36137          
1 67033U 25294D   26002.16668980 -.00129764  00000+0 -31476-2 0  9998
2 67033  43.0003  59.0468 0001300 263.4567 124.3095 15.40743723  3384
